STARLINK-36976          
1 68066U 26041AC  26079.08336806 -.00015936  00000+0 -99960-4 0  9999
2 68066  53.1597   9.9593 0001090  97.3339 255.9545 15.75243899  4043
STARLINK-36929          
1 68067U 26041AD  26079.15222468  .00214913  00000+0  13668-2 0  9999
2 68067  53.1602   9.6655 0000724 104.1378 255.9723 15.75306112  2875
STARLINK-36990          
1 68068U 26041AE  26079.19791521  .00168002  00000+0  83617-3 0  9994
2 68068  53.1597   9.2305 0000846  99.5279 260.5840 15.80927261  2882
STARLINK-36766          
1 68069U 26042A   26078.83335648 -.00052535  00000+0 -26391-3 0  9991
2 68069  53.1583 143.9438 0001290  81.3936  44.0650 15.80899428  3679
STARLINK-36823          
1 68070U 26042B   26078.83335648 -.00125199  00000+0 -63820-3 0  9998
2 68070  53.1580 143.9347 0001320 102.2803  27.4442 15.80932703  3675
STARLINK-36970          
1 68071U 26042C   26078.83335648 -.00041318  00000+0 -20652-3 0  9995
2 68071  53.1580 143.9170 0001229  89.5448  48.7292 15.80901346  3689
STARLINK-36972          
1 68072U 26042D   26078.83335648 -.00057178  00000+0 -28772-3 0  9998
2 68072  53.1581 143.9262 0001177  81.7478  52.2538 15.80898852  3682
STARLINK-37074          
1 68073U 26042E   26078.83335648  .00057649  00000+0  29523-3 0  9995
2 68073  53.1581 143.9085 0001068  56.6629  86.0365 15.80757084  3688
STARLINK-37045          
1 68074U 26042F   26078.83335648 -.00089031  00000+0 -45111-3 0  9999
2 68074  53.1580 143.8998 0001170  93.8883  52.9218 15.80923984  3682
STARLINK-37026          
1 68075U 26042G   26078.83335648 -.00069498  00000+0 -45240-3 0  9998
2 68075  53.1639 143.9615 0001144  68.5544  47.4583 15.75265332  3683
STARLINK-37023          
1 68076U 26042H   26078.83335648 -.00625912  00000+0 -43121-2 0  9993
2 68076  53.1585 143.9009 0000777  72.5305  72.7500 15.75643586  3683
STARLINK-37036          
1 68077U 26042J   26078.83335648  .00012530  00000+0  85853-4 0  9998
2 68077  53.1583 143.9044 0001703  67.1496  76.4703 15.75222336  3684
