CCSDS_OMM_VERS = 2.0
CREATION_DATE  = 
ORIGINATOR     = 

OBJECT_NAME    = STARLINK-36976
OBJECT_ID      = 2026-041AC
CENTER_NAME    = EARTH
REF_FRAME      = TEME
TIME_SYSTEM    = UTC
MEAN_ELEMENT_THEORY = SGP/SGP4

EPOCH          = 2026-03-20T02:00:03.000384
MEAN_MOTION    = 15.75243899
ECCENTRICITY   = .000109
INCLINATION    = 53.1597
RA_OF_ASC_NODE = 9.9593
ARG_OF_PERICENTER = 97.3339
MEAN_ANOMALY   = 255.9545

EPHEMERIS_TYPE = 0
CLASSIFICATION_TYPE = U
NORAD_CAT_ID   = 68066
ELEMENT_SET_NO = 999
REV_AT_EPOCH   = 404
BSTAR          = -.9996E-4
MEAN_MOTION_DOT = -.15936E-3
MEAN_MOTION_DDOT = 0

CCSDS_OMM_VERS = 2.0
CREATION_DATE  = 
ORIGINATOR     = 

OBJECT_NAME    = STARLINK-36929
OBJECT_ID      = 2026-041AD
CENTER_NAME    = EARTH
REF_FRAME      = TEME
TIME_SYSTEM    = UTC
MEAN_ELEMENT_THEORY = SGP/SGP4

EPOCH          = 2026-03-20T03:39:12.212352
MEAN_MOTION    = 15.75306112
ECCENTRICITY   = .0000724
INCLINATION    = 53.1602
RA_OF_ASC_NODE = 9.6655
ARG_OF_PERICENTER = 104.1378
MEAN_ANOMALY   = 255.9723

EPHEMERIS_TYPE = 0
CLASSIFICATION_TYPE = U
NORAD_CAT_ID   = 68067
ELEMENT_SET_NO = 999
REV_AT_EPOCH   = 287
BSTAR          = .13668E-2
MEAN_MOTION_DOT = .214913E-2
MEAN_MOTION_DDOT = 0

CCSDS_OMM_VERS = 2.0
CREATION_DATE  = 
ORIGINATOR     = 

OBJECT_NAME    = STARLINK-36990
OBJECT_ID      = 2026-041AE
CENTER_NAME    = EARTH
REF_FRAME      = TEME
TIME_SYSTEM    = UTC
MEAN_ELEMENT_THEORY = SGP/SGP4

EPOCH          = 2026-03-20T04:44:59.874144
MEAN_MOTION    = 15.80927261
ECCENTRICITY   = .0000846
INCLINATION    = 53.1597
RA_OF_ASC_NODE = 9.2305
ARG_OF_PERICENTER = 99.5279
MEAN_ANOMALY   = 260.5840

EPHEMERIS_TYPE = 0
CLASSIFICATION_TYPE = U
NORAD_CAT_ID   = 68068
ELEMENT_SET_NO = 999
REV_AT_EPOCH   = 288
BSTAR          = .83617E-3
MEAN_MOTION_DOT = .168002E-2
MEAN_MOTION_DDOT = 0

CCSDS_OMM_VERS = 2.0
CREATION_DATE  = 
ORIGINATOR     = 

OBJECT_NAME    = STARLINK-36766
OBJECT_ID      = 2026-042A
CENTER_NAME    = EARTH
REF_FRAME      = TEME
TIME_SYSTEM    = UTC
MEAN_ELEMENT_THEORY = SGP/SGP4

EPOCH          = 2026-03-19T20:00:01.999872
MEAN_MOTION    = 15.80899428
ECCENTRICITY   = .00012909
INCLINATION    = 53.1583
RA_OF_ASC_NODE = 143.9438
ARG_OF_PERICENTER = 81.3936
MEAN_ANOMALY   = 44.0650

EPHEMERIS_TYPE = 0
CLASSIFICATION_TYPE = U
NORAD_CAT_ID   = 68069
ELEMENT_SET_NO = 999
REV_AT_EPOCH   = 367
BSTAR          = -.26391102E-3
MEAN_MOTION_DOT = -.52535E-3
MEAN_MOTION_DDOT = 0

CCSDS_OMM_VERS = 2.0
CREATION_DATE  = 
ORIGINATOR     = 

OBJECT_NAME    = STARLINK-36823
OBJECT_ID      = 2026-042B
CENTER_NAME    = EARTH
REF_FRAME      = TEME
TIME_SYSTEM    = UTC
MEAN_ELEMENT_THEORY = SGP/SGP4

EPOCH          = 2026-03-19T20:00:01.999872
MEAN_MOTION    = 15.80932703
ECCENTRICITY   = .00013204
INCLINATION    = 53.1580
RA_OF_ASC_NODE = 143.9347
ARG_OF_PERICENTER = 102.2803
MEAN_ANOMALY   = 27.4442

EPHEMERIS_TYPE = 0
CLASSIFICATION_TYPE = U
NORAD_CAT_ID   = 68070
ELEMENT_SET_NO = 999
REV_AT_EPOCH   = 367
BSTAR          = -.63819788E-3
MEAN_MOTION_DOT = -.125199E-2
MEAN_MOTION_DDOT = 0

CCSDS_OMM_VERS = 2.0
CREATION_DATE  = 
ORIGINATOR     = 

OBJECT_NAME    = STARLINK-36970
OBJECT_ID      = 2026-042C
CENTER_NAME    = EARTH
REF_FRAME      = TEME
TIME_SYSTEM    = UTC
MEAN_ELEMENT_THEORY = SGP/SGP4

EPOCH          = 2026-03-19T20:00:01.999872
MEAN_MOTION    = 15.80901346
ECCENTRICITY   = .00012293
INCLINATION    = 53.1580
RA_OF_ASC_NODE = 143.9170
ARG_OF_PERICENTER = 89.5448
MEAN_ANOMALY   = 48.7292

EPHEMERIS_TYPE = 0
CLASSIFICATION_TYPE = U
NORAD_CAT_ID   = 68071
ELEMENT_SET_NO = 999
REV_AT_EPOCH   = 368
BSTAR          = -.20651718E-3
MEAN_MOTION_DOT = -.41318E-3
MEAN_MOTION_DDOT = 0

CCSDS_OMM_VERS = 2.0
CREATION_DATE  = 
ORIGINATOR     = 

OBJECT_NAME    = STARLINK-36972
OBJECT_ID      = 2026-042D
CENTER_NAME    = EARTH
REF_FRAME      = TEME
TIME_SYSTEM    = UTC
MEAN_ELEMENT_THEORY = SGP/SGP4

EPOCH          = 2026-03-19T20:00:01.999872
MEAN_MOTION    = 15.80898852
ECCENTRICITY   = .00011775
INCLINATION    = 53.1581
RA_OF_ASC_NODE = 143.9262
ARG_OF_PERICENTER = 81.7478
MEAN_ANOMALY   = 52.2538

EPHEMERIS_TYPE = 0
CLASSIFICATION_TYPE = U
NORAD_CAT_ID   = 68072
ELEMENT_SET_NO = 999
REV_AT_EPOCH   = 368
BSTAR          = -.2877169E-3
MEAN_MOTION_DOT = -.57178E-3
MEAN_MOTION_DDOT = 0

CCSDS_OMM_VERS = 2.0
CREATION_DATE  = 
ORIGINATOR     = 

OBJECT_NAME    = STARLINK-37074
OBJECT_ID      = 2026-042E
CENTER_NAME    = EARTH
REF_FRAME      = TEME
TIME_SYSTEM    = UTC
MEAN_ELEMENT_THEORY = SGP/SGP4

EPOCH          = 2026-03-19T20:00:01.999872
MEAN_MOTION    = 15.80757084
ECCENTRICITY   = .0001068
INCLINATION    = 53.1581
RA_OF_ASC_NODE = 143.9085
ARG_OF_PERICENTER = 56.6629
MEAN_ANOMALY   = 86.0365

EPHEMERIS_TYPE = 0
CLASSIFICATION_TYPE = U
NORAD_CAT_ID   = 68073
ELEMENT_SET_NO = 999
REV_AT_EPOCH   = 368
BSTAR          = .29523369E-3
MEAN_MOTION_DOT = .57649E-3
MEAN_MOTION_DDOT = 0

CCSDS_OMM_VERS = 2.0
CREATION_DATE  = 
ORIGINATOR     = 

OBJECT_NAME    = STARLINK-37045
OBJECT_ID      = 2026-042F
CENTER_NAME    = EARTH
REF_FRAME      = TEME
TIME_SYSTEM    = UTC
MEAN_ELEMENT_THEORY = SGP/SGP4

EPOCH          = 2026-03-19T20:00:01.999872
MEAN_MOTION    = 15.80923984
ECCENTRICITY   = .00011709
INCLINATION    = 53.1580
RA_OF_ASC_NODE = 143.8998
ARG_OF_PERICENTER = 93.8883
MEAN_ANOMALY   = 52.9218

EPHEMERIS_TYPE = 0
CLASSIFICATION_TYPE = U
NORAD_CAT_ID   = 68074
ELEMENT_SET_NO = 999
REV_AT_EPOCH   = 368
BSTAR          = -.45111192E-3
MEAN_MOTION_DOT = -.89031E-3
MEAN_MOTION_DDOT = 0

CCSDS_OMM_VERS = 2.0
CREATION_DATE  = 
ORIGINATOR     = 

OBJECT_NAME    = STARLINK-37026
OBJECT_ID      = 2026-042G
CENTER_NAME    = EARTH
REF_FRAME      = TEME
TIME_SYSTEM    = UTC
MEAN_ELEMENT_THEORY = SGP/SGP4

EPOCH          = 2026-03-19T20:00:01.999872
MEAN_MOTION    = 15.75265332
ECCENTRICITY   = .00011445
INCLINATION    = 53.1639
RA_OF_ASC_NODE = 143.9615
ARG_OF_PERICENTER = 68.5544
MEAN_ANOMALY   = 47.4583

EPHEMERIS_TYPE = 0
CLASSIFICATION_TYPE = U
NORAD_CAT_ID   = 68075
ELEMENT_SET_NO = 999
REV_AT_EPOCH   = 368
BSTAR          = -.45239695E-3
MEAN_MOTION_DOT = -.69498E-3
MEAN_MOTION_DDOT = 0

CCSDS_OMM_VERS = 2.0
CREATION_DATE  = 
ORIGINATOR     = 

OBJECT_NAME    = STARLINK-37023
OBJECT_ID      = 2026-042H
CENTER_NAME    = EARTH
REF_FRAME      = TEME
TIME_SYSTEM    = UTC
MEAN_ELEMENT_THEORY = SGP/SGP4

EPOCH          = 2026-03-19T20:00:01.999872
MEAN_MOTION    = 15.75643586
ECCENTRICITY   = .00007774
INCLINATION    = 53.1585
RA_OF_ASC_NODE = 143.9009
ARG_OF_PERICENTER = 72.5305
MEAN_ANOMALY   = 72.7500

EPHEMERIS_TYPE = 0
CLASSIFICATION_TYPE = U
NORAD_CAT_ID   = 68076
ELEMENT_SET_NO = 999
REV_AT_EPOCH   = 368
BSTAR          = -.43120785E-2
MEAN_MOTION_DOT = -.625912E-2
MEAN_MOTION_DDOT = 0

CCSDS_OMM_VERS = 2.0
CREATION_DATE  = 
ORIGINATOR     = 

OBJECT_NAME    = STARLINK-37036
OBJECT_ID      = 2026-042J
CENTER_NAME    = EARTH
REF_FRAME      = TEME
TIME_SYSTEM    = UTC
MEAN_ELEMENT_THEORY = SGP/SGP4

EPOCH          = 2026-03-19T20:00:01.999872
MEAN_MOTION    = 15.75222336
ECCENTRICITY   = .00017034
INCLINATION    = 53.1583
RA_OF_ASC_NODE = 143.9044
ARG_OF_PERICENTER = 67.1496
MEAN_ANOMALY   = 76.4703

EPHEMERIS_TYPE = 0
CLASSIFICATION_TYPE = U
NORAD_CAT_ID   = 68077
ELEMENT_SET_NO = 999
REV_AT_EPOCH   = 368
BSTAR          = .85852951E-4
MEAN_MOTION_DOT = .1253E-3
MEAN_MOTION_DDOT = 0

